[{"OBJECT_NAME":"STARLINK-1559","OBJECT_ID":"2020-055BC","EPOCH":"2026-03-09T05:36:23.522976","MEAN_MOTION":15.29461733,"ECCENTRICITY":0.0004229,"INCLINATION":53.0254,"RA_OF_ASC_NODE":76.0659,"ARG_OF_PERICENTER":33.971,"MEAN_ANOMALY":326.1559,"EPHEMERIS_TYPE":0,"CLASSIFICATION_TYPE":"U","NORAD_CAT_ID":46077,"ELEMENT_SET_NO":999,"REV_AT_EPOCH":30951,"BSTAR":0.0014778793,"MEAN_MOTION_DOT":0.00042685,"MEAN_MOTION_DDOT":0},{"OBJECT_NAME":"STARLINK-33733","OBJECT_ID":"2025-069C","EPOCH":"2026-03-09T10:32:29.487552","MEAN_MOTION":15.3018979,"ECCENTRICITY":0.00011669,"INCLINATION":53.1579,"RA_OF_ASC_NODE":143.8394,"ARG_OF_PERICENTER":97.1111,"MEAN_ANOMALY":263.0022,"EPHEMERIS_TYPE":0,"CLASSIFICATION_TYPE":"U","NORAD_CAT_ID":63435,"ELEMENT_SET_NO":999,"REV_AT_EPOCH":5336,"BSTAR":0.00051824849,"MEAN_MOTION_DOT":0.00015016,"MEAN_MOTION_DDOT":0}]
